[{"OBJECT_NAME":"STARLINK-35908","OBJECT_ID":"2025-271Y","EPOCH":"2026-03-13T12:43:35.455008","MEAN_MOTION":15.30198467,"ECCENTRICITY":0.00016022,"INCLINATION":53.1584,"RA_OF_ASC_NODE":122.1669,"ARG_OF_PERICENTER":59.1446,"MEAN_ANOMALY":300.9712,"EPHEMERIS_TYPE":0,"CLASSIFICATION_TYPE":"U","NORAD_CAT_ID":66639,"ELEMENT_SET_NO":999,"REV_AT_EPOCH":1815,"BSTAR":0.0010702413,"MEAN_MOTION_DOT":0.00031471,"MEAN_MOTION_DDOT":0},{"OBJECT_NAME":"STARLINK-35921","OBJECT_ID":"2025-271Z","EPOCH":"2026-03-13T07:11:16.829376","MEAN_MOTION":15.30196691,"ECCENTRICITY":0.00011264,"INCLINATION":53.1571,"RA_OF_ASC_NODE":122.8606,"ARG_OF_PERICENTER":68.3126,"MEAN_ANOMALY":291.7994,"EPHEMERIS_TYPE":0,"CLASSIFICATION_TYPE":"U","NORAD_CAT_ID":66640,"ELEMENT_SET_NO":999,"REV_AT_EPOCH":1812,"BSTAR":0.00048160001,"MEAN_MOTION_DOT":0.0001393,"MEAN_MOTION_DDOT":0},{"OBJECT_NAME":"STARLINK-35923","OBJECT_ID":"2025-271AA","EPOCH":"2026-03-13T07:03:50.552640","MEAN_MOTION":15.30201164,"ECCENTRICITY":0.00010546,"INCLINATION":53.158,"RA_OF_ASC_NODE":123.5336,"ARG_OF_PERICENTER":82.6876,"MEAN_ANOMALY":277.4244,"EPHEMERIS_TYPE":0,"CLASSIFICATION_TYPE":"U","NORAD_CAT_ID":66641,"ELEMENT_SET_NO":999,"REV_AT_EPOCH":1811,"BSTAR":0.00060404326,"MEAN_MOTION_DOT":0.00017574,"MEAN_MOTION_DDOT":0},{"OBJECT_NAME":"STARLINK-35926","OBJECT_ID":"2025-271AB","EPOCH":"2026-03-13T06:47:08.221920","MEAN_MOTION":15.30188697,"ECCENTRICITY":0.00014225,"INCLINATION":53.1584,"RA_OF_ASC_NODE":123.4624,"ARG_OF_PERICENTER":68.8152,"MEAN_ANOMALY":291.3001,"EPHEMERIS_TYPE":0,"CLASSIFICATION_TYPE":"U","NORAD_CAT_ID":66642,"ELEMENT_SET_NO":999,"REV_AT_EPOCH":1807,"BSTAR":0.00076478113,"MEAN_MOTION_DOT":0.00022352,"MEAN_MOTION_DDOT":0},{"OBJECT_NAME":"STARLINK-35918","OBJECT_ID":"2025-271AC","EPOCH":"2026-03-13T12:20:47.568480","MEAN_MOTION":15.3020853,"ECCENTRICITY":0.00010077,"INCLINATION":53.1589,"RA_OF_ASC_NODE":122.0695,"ARG_OF_PERICENTER":54.3798,"MEAN_ANOMALY":305.7297,"EPHEMERIS_TYPE":0,"CLASSIFICATION_TYPE":"U","NORAD_CAT_ID":66643,"ELEMENT_SET_NO":999,"REV_AT_EPOCH":1815,"BSTAR":0.00084643191,"MEAN_MOTION_DOT":0.000248,"MEAN_MOTION_DDOT":0},{"OBJECT_NAME":"STARLINK-35938","OBJECT_ID":"2025-271AD","EPOCH":"2026-03-13T13:15:29.821536","MEAN_MOTION":15.3019784,"ECCENTRICITY":0.00011135,"INCLINATION":53.1588,"RA_OF_ASC_NODE":122.3009,"ARG_OF_PERICENTER":80.5141,"MEAN_ANOMALY":279.5985,"EPHEMERIS_TYPE":0,"CLASSIFICATION_TYPE":"U","NORAD_CAT_ID":66644,"ELEMENT_SET_NO":999,"REV_AT_EPOCH":1815,"BSTAR":0.0010526388,"MEAN_MOTION_DOT":0.00030945,"MEAN_MOTION_DDOT":0},{"OBJECT_NAME":"STARLINK-35867","OBJECT_ID":"2025-278A","EPOCH":"2026-03-13T09:53:32.664768","MEAN_MOTION":15.27602551,"ECCENTRICITY":0.00017858,"INCLINATION":43.001,"RA_OF_ASC_NODE":93.7609,"ARG_OF_PERICENTER":251.0174,"MEAN_ANOMALY":109.0484,"EPHEMERIS_TYPE":0,"CLASSIFICATION_TYPE":"U","NORAD_CAT_ID":66791,"ELEMENT_SET_NO":999,"REV_AT_EPOCH":1577,"BSTAR":0.0010443077,"MEAN_MOTION_DOT":0.00028607,"MEAN_MOTION_DDOT":0},{"OBJECT_NAME":"STARLINK-35990","OBJECT_ID":"2025-278B","EPOCH":"2026-03-13T10:17:23.289792","MEAN_MOTION":15.27581965,"ECCENTRICITY":0.00014521,"INCLINATION":43.0028,"RA_OF_ASC_NODE":93.0144,"ARG_OF_PERICENTER":261.6182,"MEAN_ANOMALY":98.4505,"EPHEMERIS_TYPE":0,"CLASSIFICATION_TYPE":"U","NORAD_CAT_ID":66792,"ELEMENT_SET_NO":999,"REV_AT_EPOCH":1578,"BSTAR":0.0011865431,"MEAN_MOTION_DOT":0.00032535,"MEAN_MOTION_DDOT":0},{"OBJECT_NAME":"STARLINK-36051","OBJECT_ID":"2025-278C","EPOCH":"2026-03-13T03:05:28.084128","MEAN_MOTION":15.2759583,"ECCENTRICITY":0.0001455,"INCLINATION":43.0023,"RA_OF_ASC_NODE":95.0673,"ARG_OF_PERICENTER":268.3283,"MEAN_ANOMALY":91.7402,"EPHEMERIS_TYPE":0,"CLASSIFICATION_TYPE":"U","NORAD_CAT_ID":66793,"ELEMENT_SET_NO":999,"REV_AT_EPOCH":1573,"BSTAR":0.0012868349,"MEAN_MOTION_DOT":0.00035336,"MEAN_MOTION_DDOT":0},{"OBJECT_NAME":"STARLINK-36062","OBJECT_ID":"2025-278D","EPOCH":"2026-03-13T07:57:11.177568","MEAN_MOTION":15.27594783,"ECCENTRICITY":0.00012969,"INCLINATION":43.0025,"RA_OF_ASC_NODE":94.01,"ARG_OF_PERICENTER":263.2768,"MEAN_ANOMALY":96.7936,"EPHEMERIS_TYPE":0,"CLASSIFICATION_TYPE":"U","NORAD_CAT_ID":66794,"ELEMENT_SET_NO":999,"REV_AT_EPOCH":1576,"BSTAR":0.00085554164,"MEAN_MOTION_DOT":0.00023366,"MEAN_MOTION_DDOT":0},{"OBJECT_NAME":"STARLINK-36047","OBJECT_ID":"2025-278E","EPOCH":"2026-03-13T07:46:05.023200","MEAN_MOTION":15.27577484,"ECCENTRICITY":0.00018395,"INCLINATION":43.0027,"RA_OF_ASC_NODE":93.9545,"ARG_OF_PERICENTER":263.4222,"MEAN_ANOMALY":96.642,"EPHEMERIS_TYPE":0,"CLASSIFICATION_TYPE":"U","NORAD_CAT_ID":66795,"ELEMENT_SET_NO":999,"REV_AT_EPOCH":1576,"BSTAR":0.00075085185,"MEAN_MOTION_DOT":0.00020456,"MEAN_MOTION_DDOT":0},{"OBJECT_NAME":"STARLINK-35964","OBJECT_ID":"2025-278F","EPOCH":"2026-03-13T09:24:34.870464","MEAN_MOTION":15.27596911,"ECCENTRICITY":0.00014586,"INCLINATION":43.0052,"RA_OF_ASC_NODE":78.5567,"ARG_OF_PERICENTER":280.38,"MEAN_ANOMALY":79.6887,"EPHEMERIS_TYPE":0,"CLASSIFICATION_TYPE":"U","NORAD_CAT_ID":66796,"ELEMENT_SET_NO":999,"REV_AT_EPOCH":1594,"BSTAR":0.00099128891,"MEAN_MOTION_DOT":0.0002713,"MEAN_MOTION_DDOT":0},{"OBJECT_NAME":"STARLINK-36099","OBJECT_ID":"2025-278G","EPOCH":"2026-03-13T10:43:17.101344","MEAN_MOTION":15.27569835,"ECCENTRICITY":0.00021472,"INCLINATION":43.0067,"RA_OF_ASC_NODE":93.1552,"ARG_OF_PERICENTER":265.7646,"MEAN_ANOMALY":94.296,"EPHEMERIS_TYPE":0,"CLASSIFICATION_TYPE":"U","NORAD_CAT_ID":66797,"ELEMENT_SET_NO":999,"REV_AT_EPOCH":1578,"BSTAR":0.00086711221,"MEAN_MOTION_DOT":0.00023668,"MEAN_MOTION_DDOT":0},{"OBJECT_NAME":"STARLINK-36041","OBJECT_ID":"2025-278H","EPOCH":"2026-03-13T11:09:11.618784","MEAN_MOTION":15.27608306,"ECCENTRICITY":0.00018867,"INCLINATION":43.0025,"RA_OF_ASC_NODE":93.2867,"ARG_OF_PERICENTER":255.51,"MEAN_ANOMALY":104.5542,"EPHEMERIS_TYPE":0,"CLASSIFICATION_TYPE":"U","NORAD_CAT_ID":66798,"ELEMENT_SET_NO":999,"REV_AT_EPOCH":1578,"BSTAR":0.001100155,"MEAN_MOTION_DOT":0.00030162,"MEAN_MOTION_DDOT":0},{"OBJECT_NAME":"STARLINK-36044","OBJECT_ID":"2025-278J","EPOCH":"2026-03-13T02:22:54.540768","MEAN_MOTION":15.275894,"ECCENTRICITY":5.564e-5,"INCLINATION":42.9992,"RA_OF_ASC_NODE":94.8375,"ARG_OF_PERICENTER":267.0202,"MEAN_ANOMALY":93.0586,"EPHEMERIS_TYPE":0,"CLASSIFICATION_TYPE":"U","NORAD_CAT_ID":66799,"ELEMENT_SET_NO":999,"REV_AT_EPOCH":1573,"BSTAR":0.00072460069,"MEAN_MOTION_DOT":0.00019736,"MEAN_MOTION_DDOT":0},{"OBJECT_NAME":"STARLINK-35996","OBJECT_ID":"2025-278K","EPOCH":"2026-03-13T10:06:17.198496","MEAN_MOTION":15.27595151,"ECCENTRICITY":0.00012785,"INCLINATION":43.0021,"RA_OF_ASC_NODE":92.9549,"ARG_OF_PERICENTER":267.2553,"MEAN_ANOMALY":92.8152,"EPHEMERIS_TYPE":0,"CLASSIFICATION_TYPE":"U","NORAD_CAT_ID":66800,"ELEMENT_SET_NO":999,"REV_AT_EPOCH":1578,"BSTAR":0.00097831011,"MEAN_MOTION_DOT":0.00026769,"MEAN_MOTION_DDOT":0},{"OBJECT_NAME":"STARLINK-36080","OBJECT_ID":"2025-278L","EPOCH":"2026-03-13T09:51:41.438592","MEAN_MOTION":15.27602131,"ECCENTRICITY":0.00018104,"INCLINATION":43,"RA_OF_ASC_NODE":93.7463,"ARG_OF_PERICENTER":262.3829,"MEAN_ANOMALY":97.6817,"EPHEMERIS_TYPE":0,"CLASSIFICATION_TYPE":"U","NORAD_CAT_ID":66801,"ELEMENT_SET_NO":999,"REV_AT_EPOCH":1577,"BSTAR":0.0010167041,"MEAN_MOTION_DOT":0.0002784,"MEAN_MOTION_DDOT":0},{"OBJECT_NAME":"STARLINK-35604","OBJECT_ID":"2025-278M","EPOCH":"2026-03-13T09:27:38.123136","MEAN_MOTION":15.27593974,"ECCENTRICITY":0.00017761,"INCLINATION":43.0017,"RA_OF_ASC_NODE":93.6149,"ARG_OF_PERICENTER":274.9218,"MEAN_ANOMALY":85.1431,"EPHEMERIS_TYPE":0,"CLASSIFICATION_TYPE":"U","NORAD_CAT_ID":66802,"ELEMENT_SET_NO":999,"REV_AT_EPOCH":1577,"BSTAR":0.001007507,"MEAN_MOTION_DOT":0.00027578,"MEAN_MOTION_DDOT":0},{"OBJECT_NAME":"STARLINK-35565","OBJECT_ID":"2025-278N","EPOCH":"2026-03-13T09:36:53.404704","MEAN_MOTION":15.27603232,"ECCENTRICITY":0.00014013,"INCLINATION":42.9993,"RA_OF_ASC_NODE":93.6703,"ARG_OF_PERICENTER":260.0129,"MEAN_ANOMALY":100.0565,"EPHEMERIS_TYPE":0,"CLASSIFICATION_TYPE":"U","NORAD_CAT_ID":66803,"ELEMENT_SET_NO":999,"REV_AT_EPOCH":1577,"BSTAR":0.00089339383,"MEAN_MOTION_DOT":0.00024421,"MEAN_MOTION_DDOT":0},{"OBJECT_NAME":"STARLINK-36038","OBJECT_ID":"2025-278P","EPOCH":"2026-03-13T10:22:56.166528","MEAN_MOTION":15.27594114,"ECCENTRICITY":0.00021541,"INCLINATION":43.0075,"RA_OF_ASC_NODE":93.0509,"ARG_OF_PERICENTER":283.605,"MEAN_ANOMALY":76.4562,"EPHEMERIS_TYPE":0,"CLASSIFICATION_TYPE":"U","NORAD_CAT_ID":66804,"ELEMENT_SET_NO":999,"REV_AT_EPOCH":1578,"BSTAR":0.0007763169,"MEAN_MOTION_DOT":0.00021171,"MEAN_MOTION_DDOT":0},{"OBJECT_NAME":"STARLINK-36049","OBJECT_ID":"2025-278Q","EPOCH":"2026-03-13T09:40:35.577984","MEAN_MOTION":15.27598701,"ECCENTRICITY":0.00012311,"INCLINATION":42.9997,"RA_OF_ASC_NODE":93.6923,"ARG_OF_PERICENTER":264.8964,"MEAN_ANOMALY":95.1747,"EPHEMERIS_TYPE":0,"CLASSIFICATION_TYPE":"U","NORAD_CAT_ID":66805,"ELEMENT_SET_NO":999,"REV_AT_EPOCH":1577,"BSTAR":0.00095354915,"MEAN_MOTION_DOT":0.00026085,"MEAN_MOTION_DDOT":0},{"OBJECT_NAME":"STARLINK-36069","OBJECT_ID":"2025-278R","EPOCH":"2026-03-13T09:46:09.046560","MEAN_MOTION":15.27582221,"ECCENTRICITY":0.0001451,"INCLINATION":42.9998,"RA_OF_ASC_NODE":93.7169,"ARG_OF_PERICENTER":261.8898,"MEAN_ANOMALY":98.1789,"EPHEMERIS_TYPE":0,"CLASSIFICATION_TYPE":"U","NORAD_CAT_ID":66806,"ELEMENT_SET_NO":999,"REV_AT_EPOCH":1577,"BSTAR":0.0012198042,"MEAN_MOTION_DOT":0.00033459,"MEAN_MOTION_DDOT":0},{"OBJECT_NAME":"STARLINK-36000","OBJECT_ID":"2025-278S","EPOCH":"2026-03-13T02:37:42.563424","MEAN_MOTION":15.27603066,"ECCENTRICITY":6.219e-5,"INCLINATION":42.9982,"RA_OF_ASC_NODE":94.9207,"ARG_OF_PERICENTER":180.3912,"MEAN_ANOMALY":179.6939,"EPHEMERIS_TYPE":0,"CLASSIFICATION_TYPE":"U","NORAD_CAT_ID":66807,"ELEMENT_SET_NO":999,"REV_AT_EPOCH":1573,"BSTAR":0.0011054094,"MEAN_MOTION_DOT":0.00030303,"MEAN_MOTION_DDOT":0}]
